NARSSCUBE-2             
1 44415U 19022E   22310.17150485  .00013038  00000+0  35956-3 0  9996
2 44415  51.6377 150.4602 0010926 206.0470 153.9965 15.37386259181898
DUCHIFAT-3              
1 44854U 19089C   22311.21334865  .00007305  00000+0  54893-3 0  9999
2 44854  36.9661 333.4167 0008223 303.1214  56.8761 15.02208923159408
OPS-SAT                 
1 44878U 19092F   22310.47818747  .00014807  00000+0  63323-3 0  9995
2 44878  97.4781 133.4723 0011226 199.9703 160.1096 15.22877395159784
FLORIPASAT-1            
1 44885U 19093G   22311.21429195  .00003840  00000+0  46976-3 0  9992
2 44885  97.8888  30.0110 0015512  87.7304 272.5696 14.83730055156013
HUSKYSAT-1 (HO-107)     
1 45119U 19071J   22310.74494699  .00049867  00000+0  79068-3 0  9994
2 45119  51.6356  76.8108 0009764 325.8453  34.1908 15.52833835155407
BY70-2                  
1 45857U 20042B   22311.15493469  .00013677  00000+0  17321-2 0  9996
2 45857  97.9465  26.7356 0009706  21.3589 338.8072 14.81862752126576
SALSAT                  
1 46495U 20068K   22310.39747397  .00004458  00000+0  31575-3 0  9995
2 46495  97.7424 251.8805 0016851 151.7347 208.4798 15.05225551115535
NETSAT-4                
1 46504U 20068U   22310.57253054  .00006686  00000+0  48323-3 0  9992
2 46504  97.7340 250.2364 0010988 197.8022 162.2822 15.04342662115405
NETSAT-3                
1 46505U 20068V   22310.59213517  .00006877  00000+0  49780-3 0  9995
2 46505  97.7334 250.1518 0009559 206.9156 153.1594 15.04287928115410
NETSAT-1                
1 46506U 20068W   22310.61396138  .00005945  00000+0  43172-3 0  9994
2 46506  97.7344 250.0885 0007263 211.8131 148.2660 15.04241245115417
NETSAT-2                
1 46507U 20068X   22310.62503335  .00006531  00000+0  47379-3 0  9990
2 46507  97.7338 250.0915 0006776 219.3774 140.6971 15.04239874115369
BY70-3                  
1 46839U 20079N   22311.29718681  .00063845  00000+0  11273-2 0  9990
2 46839  97.1836  22.0374 0005923 163.6873 236.7449 15.50138196112308
UVSQ-SAT                
1 47438U 21006AB  22310.74262293  .00009109  00000+0  45606-3 0  9990
2 47438  97.4205   6.8455 0012561 135.9206 224.3031 15.17547233 98846
SOMP2B                  
1 47445U 21006AJ  22310.90773927  .00008984  00000+0  45578-3 0  9995
2 47445  97.4182   6.5438 0012142 139.2945 220.9198 15.17090586 98859
DIY-1 (ARDUIQUBE)       
1 47963U 21022AH  22310.16531691  .00032055  00000+0  15300-2 0  9991
2 47963  97.5180 210.1904 0016239  14.7825 345.3881 15.18877314 88414
